NORAD_CAT_ID,OBJECT_NAME,OBJECT_TYPE,EPOCH,MEAN_MOTION,ECCENTRICITY,INCLINATION,RA_OF_ASC_NODE,ARG_OF_PERICENTER,MEAN_ANOMALY,BSTAR,MEAN_MOTION_DOT,MEAN_MOTION_DDOT,TLE_LINE0,TLE_LINE1,TLE_LINE2,SEMIMAJOR_AXIS,PERIOD,APOGEE,PERIGEE,DECAYED
51123.0,STARLINK-3392,PAYLOAD,2022-07-10 16:01:55,15.08826752,0.0002456,53.2169,175.7407,50.5533,309.5676,-1.937e-05,-5.97e-06,0.0,0 STARLINK-3392,1 51123U 22005V   22191.66800266 -.00000597  00000-0 -19370-4 0  9997,2 51123  53.2169 175.7407 0002456  50.5533 309.5676 15.08826752 26883,6917.920999999999,95.438,541.485,538.087,0.0
51123.0,STARLINK-3392,PAYLOAD,2022-07-11 03:09:37,15.08829475,0.0002462,53.2171,173.65900000000005,51.0762,309.0449,-7.9044e-06,-4.14e-06,0.0,0 STARLINK-3392,1 51123U 22005V   22192.13168397 -.00000414  00000-0 -79044-5 0  9995,2 51123  53.2171 173.6590 0002462  51.0762 309.0449 15.08829475 28030,6917.913000000001,95.438,541.481,538.0740000000002,0.0
51123.0,STARLINK-3392,PAYLOAD,2022-07-11 07:55:46,15.08831441,0.0002474,53.2171,172.7669,51.1672,308.9541,-1.3945999999999991e-05,-5.1e-06,0.0,0 STARLINK-3392,1 51123U 22005V   22192.33040421 -.00000510  00000-0 -13946-4 0  9999,2 51123  53.2171 172.7669 0002474  51.1672 308.9541 15.08831441 26980,6917.906999999997,95.438,541.4830000000002,538.06,0.0
51123.0,STARLINK-3392,PAYLOAD,2022-07-11 15:52:42,15.08834342,0.0002463,53.2172,171.2803,51.6983,308.423,-1.2411e-05,-4.86e-06,0.0,0 STARLINK-3392,1 51123U 22005V   22192.66160397 -.00000486  00000-0 -12411-4 0  9998,2 51123  53.2172 171.2803 0002463  51.6983 308.4230 15.08834342 27033,6917.898,95.438,541.467,538.059,0.0
51123.0,STARLINK-3392,PAYLOAD,2022-07-12 07:46:33,15.08834089,0.0002485,53.217,168.3069,52.521,307.6008,0.00014245,1.979e-05,0.0,0 STARLINK-3392,1 51123U 22005V   22193.32400254  .00001979  00000-0  14245-3 0  9993,2 51123  53.2170 168.3069 0002485  52.5210 307.6008 15.08834089 28212,6917.898,95.438,541.4830000000002,538.044,0.0
51123.0,STARLINK-3392,PAYLOAD,2022-07-12 15:43:30,15.0883026,0.0002525,53.217,166.8202,53.1486,306.9737,9.4307e-05,1.212e-05,0.0,0 STARLINK-3392,1 51123U 22005V   22193.65520858  .00001212  00000-0  94307-4 0  9990,2 51123  53.2170 166.8202 0002525  53.1486 306.9737 15.08830260 27184,6917.91,95.438,541.5219999999998,538.028,0.0
51123.0,STARLINK-3392,PAYLOAD,2022-07-13 07:37:20,15.08841433,0.0002593,53.2171,163.8463,55.0007,305.1228,0.00013431,1.85e-05,0.0,0 STARLINK-3392,1 51123U 22005V   22194.31760296  .00001850  00000-0  13431-3 0  9992,2 51123  53.2171 163.8463 0002593  55.0007 305.1228 15.08841433 27287,6917.876,95.437,541.535,537.947,0.0
51123.0,STARLINK-3392,PAYLOAD,2022-07-13 15:34:16,15.08846272,0.0002618,53.2171,162.3597,55.4809,304.643,0.00014332,1.994e-05,0.0,0 STARLINK-3392,1 51123U 22005V   22194.64879936  .00001994  00000-0  14332-3 0  9990,2 51123  53.2171 162.3597 0002618  55.4809 304.6430 15.08846272 28412,6917.861,95.437,541.5369999999998,537.915,0.0
51123.0,STARLINK-3392,PAYLOAD,2022-07-14 04:17:21,15.08841897,0.0002603,53.2167,159.9809,52.5946,307.5282,4.9825e-05,5.05e-06,0.0,0 STARLINK-3392,1 51123U 22005V   22195.17872285  .00000505  00000-0  49825-4 0  9992,2 51123  53.2167 159.9809 0002603  52.5946 307.5282 15.08841897 28492,6917.875,95.437,541.54,537.939,0.0
51123.0,STARLINK-3392,PAYLOAD,2022-07-14 07:28:07,15.08841204,0.0002578,53.217,159.3858,55.4131,304.7104,2.7217e-05,1.45e-06,0.0,0 STARLINK-3392,1 51123U 22005V   22195.31120362  .00000145  00000-0  27217-4 0  9991,2 51123  53.2170 159.3858 0002578  55.4131 304.7104 15.08841204 27430,6917.877,95.437,541.525,537.9580000000002,0.0
51123.0,STARLINK-3392,PAYLOAD,2022-07-15 07:18:54,15.08841701,0.0002506,53.2162,154.9256,55.9029,304.2201,1.6364e-05,-2.8e-07,0.0,0 STARLINK-3392,1 51123U 22005V   22196.30480142 -.00000028  00000-0  16364-4 0  9998,2 51123  53.2162 154.9256 0002506  55.9029 304.2201 15.08841701 28667,6917.875,95.437,541.474,538.007,0.0
51123.0,STARLINK-3392,PAYLOAD,2022-07-15 21:37:22,15.08843618,0.0002471,53.2156,152.249,56.994,303.1289,-4.013e-05,-9.27e-06,0.0,0 STARLINK-3392,1 51123U 22005V   22196.90096005 -.00000927  00000-0 -40130-4 0  9992,2 51123  53.2156 152.2490 0002471  56.9940 303.1289 15.08843618 27678,6917.869000000002,95.437,541.444,538.025,0.0
51123.0,STARLINK-3392,PAYLOAD,2022-07-16 03:58:54,15.08849767,0.0002537,53.2169,151.0609,58.6252,301.4989,3.0584000000000004e-05,1.98e-06,0.0,0 STARLINK-3392,1 51123U 22005V   22197.16591329  .00000198  00000-0  30584-4 0  9990,2 51123  53.2169 151.0609 0002537  58.6252 301.4989 15.08849767 28792,6917.851,95.437,541.471,537.96,0.0
51123.0,STARLINK-3392,PAYLOAD,2022-07-16 07:09:41,15.08847663,0.000256,53.217,150.4656,58.3258,301.7984,0.00013939,1.931e-05,0.0,0 STARLINK-3392,1 51123U 22005V   22197.29839192  .00001931  00000-0  13939-3 0  9997,2 51123  53.2170 150.4656 0002560  58.3258 301.7984 15.08847663 27732,6917.857,95.437,541.493,537.951,0.0
51123.0,STARLINK-3392,PAYLOAD,2022-07-16 19:52:45,15.08850602,0.0002593,53.2178,148.0883,62.9095,297.2161,5.5138e-05,5.89e-06,0.0,0 STARLINK-3392,1 51123U 22005V   22197.82830985  .00000589  00000-0  55138-4 0  9993,2 51123  53.2178 148.0883 0002593  62.9095 297.2161 15.08850602 27813,6917.848000000001,95.437,541.507,537.919,0.0
51123.0,STARLINK-3392,PAYLOAD,2022-07-17 13:22:01,15.08836226,0.0002581,53.2182,144.8174,64.7654,295.3605,-3.4489e-05,-8.37e-06,0.0,0 STARLINK-3392,1 51123U 22005V   22198.55696065 -.00000837  00000-0 -34489-4 0  9997,2 51123  53.2182 144.8174 0002581  64.7654 295.3605 15.08836226 27923,6917.892,95.438,541.5419999999998,537.971,0.0
51123.0,STARLINK-3392,PAYLOAD,2022-07-17 14:57:24,15.08828861,0.0002465,53.2181,144.52,60.8114,299.3124,6.5276e-05,7.4999999999999985e-06,0.0,0 STARLINK-3392,1 51123U 22005V   22198.62320357  .00000750  00000-0  65276-4 0  9993,2 51123  53.2181 144.5200 0002465  60.8114 299.3124 15.08828861 29016,6917.9140000000025,95.438,541.485,538.0740000000002,0.0
51123.0,STARLINK-3392,PAYLOAD,2022-07-18 03:40:29,15.08841109,0.0002437,53.2181,142.1405,57.2567,302.866,9.5199e-06,-1.37e-06,0.0,0 STARLINK-3392,1 51123U 22005V   22199.15311599 -.00000137  00000-0  95199-5 0  9998,2 51123  53.2181 142.1405 0002437  57.2567 302.8660 15.08841109 29091,6917.877,95.437,541.428,538.056,0.0
51123.0,STARLINK-3392,PAYLOAD,2022-07-18 06:51:16,15.08833752,0.0002409,53.2174,141.5453,59.6751,300.4479,-5.5738e-05,-1.175e-05,0.0,0 STARLINK-3392,1 51123U 22005V   22199.28560227 -.00001175  00000-0 -55738-4 0  9994,2 51123  53.2174 141.5453 0002409  59.6751 300.4479 15.08833752 29119,6917.899,95.438,541.431,538.0980000000002,0.0
51123.0,STARLINK-3392,PAYLOAD,2022-07-18 13:12:48,15.08837615,0.0002431,53.2173,140.3551,58.8626,301.2604,-4.8831e-05,-1.065e-05,0.0,0 STARLINK-3392,1 51123U 22005V   22199.55056022 -.00001065  00000-0 -48831-4 0  9991,2 51123  53.2173 140.3551 0002431  58.8626 301.2604 15.08837615 28076,6917.888000000001,95.438,541.434,538.071,0.0
51123.0,STARLINK-3392,PAYLOAD,2022-07-19 01:55:53,15.08842729,0.0002391,53.2176,137.9762,60.1694,299.9536,5.782600000000001e-05,6.32e-06,0.0,0 STARLINK-3392,1 51123U 22005V   22200.08047548  .00000632  00000-0  57826-4 0  9996,2 51123  53.2176 137.9762 0002391  60.1694 299.9536 15.08842729 29239,6917.871999999999,95.437,541.391,538.0830000000002,0.0
51123.0,STARLINK-3392,PAYLOAD,2022-07-19 13:03:34,15.08854158,0.0002389,53.2177,135.895,59.5739,300.5489,0.00017264,2.461e-05,0.0,0 STARLINK-3392,1 51123U 22005V   22200.54414540  .00002461  00000-0  17264-3 0  9990,2 51123  53.2177 135.8950 0002389  59.5739 300.5489 15.08854158 29308,6917.837,95.437,541.355,538.049,0.0
51123.0,STARLINK-3392,PAYLOAD,2022-07-20 12:54:21,15.08848577,0.0002275,53.2162,131.4345,60.0627,300.0591,0.00025679,3.802e-05,0.0,0 STARLINK-3392,1 51123U 22005V   22201.53775034  .00003802  00000-0  25679-3 0  9997,2 51123  53.2162 131.4345 0002275  60.0627 300.0591 15.08848577 28372,6917.854,95.437,541.293,538.145,0.0
51123.0,STARLINK-3392,PAYLOAD,2022-07-21 03:12:49,15.08841739,0.0002265,53.2168,128.7582,64.3712,295.7514,2.073900000000001e-05,4.2e-07,0.0,0 STARLINK-3392,1 51123U 22005V   22202.13391158  .00000042  00000-0  20739-4 0  9991,2 51123  53.2168 128.7582 0002265  64.3712 295.7514 15.08841739 29549,6917.875,95.437,541.307,538.173,0.0
51123.0,STARLINK-3392,PAYLOAD,2022-07-21 12:45:08,15.08844233,0.0002211999999999,53.217,126.9737,63.9008,296.2211,3.2428e-05,2.28e-06,0.0,0 STARLINK-3392,1 51123U 22005V   22202.53135041  .00000228  00000-0  32428-4 0  9996,2 51123  53.2170 126.9737 0002212  63.9008 296.2211 15.08844233 28528,6917.8669999999975,95.437,541.263,538.202,0.0
51123.0,STARLINK-3392,PAYLOAD,2022-07-22 04:39:00,15.08843505,0.0002243,53.217,124.0006,62.4614,297.6605,-4.8464e-05,-1.06e-05,0.0,0 STARLINK-3392,1 51123U 22005V   22203.19375062 -.00001060  00000-0 -48464-4 0  9992,2 51123  53.2170 124.0006 0002243  62.4614 297.6605 15.08843505 29701,6917.87,95.437,541.286,538.183,0.0
51123.0,STARLINK-3392,PAYLOAD,2022-07-22 20:32:52,15.08830776,0.0002091,53.2175,121.0265,61.342,298.7782,6.3953e-05,7.29e-06,0.0,0 STARLINK-3392,1 51123U 22005V   22203.85615949  .00000729  00000-0  63953-4 0  9995,2 51123  53.2175 121.0265 0002091  61.3420 298.7782 15.08830776 28729,6917.909000000002,95.438,541.22,538.327,0.0
51123.0,STARLINK-3392,PAYLOAD,2022-07-23 04:29:47,15.08838006,0.0002095,53.2178,119.5403,60.3377,299.7824,6.7882e-05,7.92e-06,0.0,0 STARLINK-3392,1 51123U 22005V   22204.18735563  .00000792  00000-0  67882-4 0  9992,2 51123  53.2178 119.5403 0002095  60.3377 299.7824 15.08838006 29859,6917.886,95.438,541.201,538.302,0.0
51123.0,STARLINK-3392,PAYLOAD,2022-07-23 10:51:19,15.08840144,0.0002084,53.2179,118.3511,59.4541,300.6656,7.9429e-05,9.76e-06,0.0,0 STARLINK-3392,1 51123U 22005V   22204.45231403  .00000976  00000-0  79429-4 0  9990,2 51123  53.2179 118.3511 0002084  59.4541 300.6656 15.08840144 28813,6917.88,95.438,541.187,538.303,0.0
